CCSDS_OEM_VERS = 1.0
CREATION_DATE  = 2017-05-11T11:17:05
ORIGINATOR     = GMAT USER

META_START
OBJECT_NAME          = MOPSSat_alt_35785_km_RAAN_90_090
OBJECT_ID            = SatId
CENTER_NAME          = Earth
REF_FRAME            = EME2000
TIME_SYSTEM          = UTC
START_TIME           = 2017-01-01T00:00:00.000
USEABLE_START_TIME   = 2017-01-01T00:00:00.000
USEABLE_STOP_TIME    = 2017-01-02T00:00:00.000
STOP_TIME            = 2017-01-02T00:00:00.000
INTERPOLATION        = Lagrange
INTERPOLATION_DEGREE = 7 
META_STOP


                                                                                   

2017-01-01T09:37:30.000  -2.402977387123020e+04  -3.500107751703056e+04   2.102805849241729e+03   2.491733679866186e+00  -1.744693015721977e+00  -2.180241131779874e-01
2017-01-01T09:37:40.000  -2.400485030055204e+04  -3.501851536373449e+04   2.100625062490314e+03   2.492980139785261e+00  -1.742876109592085e+00  -2.181332094595720e-01
2017-01-01T09:37:50.000  -2.397991427184632e+04  -3.503593503694522e+04   2.098443185351019e+03   2.494225290846907e+00  -1.741058321074366e+00  -2.182421912324244e-01
2017-01-01T09:38:00.000  -2.395496579840052e+04  -3.505333652770706e+04   2.096260218986336e+03   2.495469132442882e+00  -1.739239651124602e+00  -2.183510584433003e-01
2017-01-01T09:38:10.000  -2.393000489356771e+04  -3.507071982703243e+04   2.094076164564493e+03   2.496711663962641e+00  -1.737420100703302e+00  -2.184598110387540e-01
2017-01-01T09:38:20.000  -2.390503157019384e+04  -3.508808492630059e+04   2.091891023209355e+03   2.497952884821851e+00  -1.735599670733952e+00  -2.185684489676337e-01
2017-01-01T09:38:30.000  -2.388004584119186e+04  -3.510543181685767e+04   2.089704796050639e+03   2.499192794433797e+00  -1.733778362144856e+00  -2.186769721785795e-01
2017-01-01T09:38:40.000  -2.385504771939356e+04  -3.512276049012016e+04   2.087517484210964e+03   2.500431392216774e+00  -1.731956175858348e+00  -2.187853806206697e-01
2017-01-01T09:38:50.000  -2.383003721794733e+04  -3.514007093729607e+04   2.085329088840655e+03   2.501668677574165e+00  -1.730133112819784e+00  -2.188936742416771e-01
2017-01-01T09:39:00.000  -2.380501434999017e+04  -3.515736314961536e+04   2.083139611089035e+03   2.502904649910904e+00  -1.728309173973632e+00  -2.190018529895108e-01
2017-01-01T09:39:10.000  -2.377997912872327e+04  -3.517463711827673e+04   2.080949052111050e+03   2.504139308629679e+00  -1.726484360268980e+00  -2.191099168118829e-01
2017-01-01T09:39:20.000  -2.375493156738340e+04  -3.519189283446933e+04   2.078757413064756e+03   2.505372653132478e+00  -1.724658672657448e+00  -2.192178656564446e-01
2017-01-01T09:39:30.000  -2.372987167922824e+04  -3.520913028938133e+04   2.076564695110035e+03   2.506604682821209e+00  -1.722832112092125e+00  -2.193256994708395e-01
2017-01-01T09:39:40.000  -2.370479947750629e+04  -3.522634947422067e+04   2.074370899405976e+03   2.507835397099171e+00  -1.721004679525374e+00  -2.194334182028334e-01
2017-01-01T09:39:50.000  -2.367971497544369e+04  -3.524355038022562e+04   2.072176027109701e+03   2.509064795371824e+00  -1.719176375907865e+00  -2.195410218003810e-01
2017-01-01T09:40:00.000  -2.365461818621368e+04  -3.526073299868389e+04   2.069980079373711e+03   2.510292877048141e+00  -1.717347202186356e+00  -2.196485102117444e-01
2017-01-01T09:40:10.000  -2.362950912301327e+04  -3.527789732088083e+04   2.067783057352585e+03   2.511519641536918e+00  -1.715517159309282e+00  -2.197558833851701e-01
2017-01-01T09:40:20.000  -2.360438779873115e+04  -3.529504333832397e+04   2.065584962173922e+03   2.512745088262804e+00  -1.713686248202549e+00  -2.198631412702926e-01
2017-01-01T09:40:30.000  -2.357925422634982e+04  -3.531217104247055e+04   2.063385794973533e+03   2.513969216646846e+00  -1.711854469798840e+00  -2.199702838164307e-01
2017-01-01T09:40:40.000  -2.355410841879372e+04  -3.532928042483074e+04   2.061185556882147e+03   2.515192026113859e+00  -1.710021825026552e+00  -2.200773109732330e-01
2017-01-01T09:40:50.000  -2.352895038951703e+04  -3.534637147656742e+04   2.058984249076846e+03   2.516413516063823e+00  -1.708188314852632e+00  -2.201842226881742e-01
2017-01-01T09:41:00.000  -2.350378015191600e+04  -3.536344418889660e+04   2.056781872729644e+03   2.517633685900494e+00  -1.706353940239744e+00  -2.202910189090597e-01
2017-01-01T09:41:10.000  -2.347859771948047e+04  -3.538049855298379e+04   2.054578429020740e+03   2.518852535024005e+00  -1.704518702157321e+00  -2.203976995833780e-01
2017-01-01T09:41:20.000  -2.345340310539314e+04  -3.539753456021847e+04   2.052373919103465e+03   2.520070062850484e+00  -1.702682601552347e+00  -2.205042646600170e-01
2017-01-01T09:41:30.000  -2.342819632286005e+04  -3.541455220198727e+04   2.050168344133189e+03   2.521286268795838e+00  -1.700845639373453e+00  -2.206107140878458e-01
2017-01-01T09:41:40.000  -2.340297738503444e+04  -3.543155146972642e+04   2.047961705260662e+03   2.522501152279504e+00  -1.699007816565363e+00  -2.207170478160417e-01
2017-01-01T09:41:50.000  -2.337774630504546e+04  -3.544853235490029e+04   2.045754003634528e+03   2.523714712722911e+00  -1.697169134070992e+00  -2.208232657939571e-01
2017-01-01T09:42:00.000  -2.335250309601310e+04  -3.546549484899300e+04   2.043545240402627e+03   2.524926949548886e+00  -1.695329592832526e+00  -2.209293679710662e-01
2017-01-01T09:42:10.000  -2.332724777107828e+04  -3.548243894348807e+04   2.041335416714636e+03   2.526137862180198e+00  -1.693489193793623e+00  -2.210353542968383e-01
2017-01-01T09:42:20.000  -2.330198034341632e+04  -3.549936462985791e+04   2.039124533723236e+03   2.527347450038803e+00  -1.691647937900387e+00  -2.211412247206716e-01
2017-01-01T09:42:30.000  -2.327670082626753e+04  -3.551627189954518e+04   2.036912592586798e+03   2.528555712544515e+00  -1.689805826103605e+00  -2.212469791917766e-01
2017-01-01T09:42:40.000  -2.325140923286006e+04  -3.553316074401354e+04   2.034699594462629e+03   2.529762649118638e+00  -1.687962859353118e+00  -2.213526176594942e-01
2017-01-01T09:42:50.000  -2.322610557674431e+04  -3.555003115452714e+04   2.032485540536233e+03   2.530968259168191e+00  -1.686119038622191e+00  -2.214581400719152e-01
2017-01-01T09:43:00.000  -2.320078987138793e+04  -3.556688312241822e+04   2.030270431985872e+03   2.532172542105055e+00  -1.684274364878004e+00  -2.215635463775556e-01
2017-01-01T09:43:10.000  -2.317546213032629e+04  -3.558371663898751e+04   2.028054269995736e+03   2.533375497338838e+00  -1.682428839092611e+00  -2.216688365247326e-01
2017-01-01T09:43:20.000  -2.315012236658002e+04  -3.560053169589159e+04   2.025837055704976e+03   2.534577124304561e+00  -1.680582462200504e+00  -2.217740104639874e-01
2017-01-01T09:43:30.000  -2.312477059323585e+04  -3.561732828475625e+04   2.023618790258524e+03   2.535777422435027e+00  -1.678735235140935e+00  -2.218790681456675e-01
2017-01-01T09:43:40.000  -2.309940682331524e+04  -3.563410639726448e+04   2.021399474795604e+03   2.536976391167112e+00  -1.676887158848341e+00  -2.219840095204767e-01
2017-01-01T09:43:50.000  -2.307403107010123e+04  -3.565086602493658e+04   2.019179110478325e+03   2.538174029926051e+00  -1.675038234276162e+00  -2.220888345380995e-01
2017-01-01T09:44:00.000  -2.304864334689614e+04  -3.566760715929418e+04   2.016957698470489e+03   2.539370338137151e+00  -1.673188462379194e+00  -2.221935431482272e-01
2017-01-01T09:44:10.000  -2.302324366702105e+04  -3.568432979185916e+04   2.014735239937535e+03   2.540565315225723e+00  -1.671337844113535e+00  -2.222981353005513e-01
2017-01-01T09:44:20.000  -2.299783204406148e+04  -3.570103391399531e+04   2.012511736068042e+03   2.541758960605767e+00  -1.669486380454497e+00  -2.224026109437729e-01
2017-01-01T09:44:30.000  -2.297240849153708e+04  -3.571771951712263e+04   2.010287188044820e+03   2.542951273695282e+00  -1.667634072372529e+00  -2.225069700269433e-01
2017-01-01T09:44:40.000  -2.294697302303135e+04  -3.573438659263257e+04   2.008061597056280e+03   2.544142253910208e+00  -1.665780920842683e+00  -2.226112124989339e-01
2017-01-01T09:44:50.000  -2.292152565161798e+04  -3.575103513226432e+04   2.005834964246212e+03   2.545331900691317e+00  -1.663926926802807e+00  -2.227153383107890e-01
2017-01-01T09:45:00.000  -2.289606639043447e+04  -3.576766512772837e+04   2.003607290763996e+03   2.546520213477312e+00  -1.662072091195343e+00  -2.228193474133721e-01
2017-01-01T09:45:10.000  -2.287059525255273e+04  -3.578427657079192e+04   2.001378577753270e+03   2.547707191710936e+00  -1.660216414957894e+00  -2.229232397579000e-01
2017-01-01T09:45:20.000  -2.284511225130722e+04  -3.580086945306127e+04   1.999148826380646e+03   2.548892834823411e+00  -1.658359899047142e+00  -2.230270152945812e-01
2017-01-01T09:45:30.000  -2.281961740005173e+04  -3.581744376614408e+04   1.996918037814431e+03   2.550077142246043e+00  -1.656502544421119e+00  -2.231306739736318e-01
2017-01-01T09:45:40.000  -2.279411071215879e+04  -3.583399950164844e+04   1.994686213224568e+03   2.551260113410147e+00  -1.654644352039163e+00  -2.232342157452683e-01
2017-01-01T09:45:50.000  -2.276859220126642e+04  -3.585053665102606e+04   1.992453353804229e+03   2.552441747735852e+00  -1.652785322879900e+00  -2.233376405587282e-01
2017-01-01T09:46:00.000  -2.274306188094630e+04  -3.586705520578444e+04   1.990219460740787e+03   2.553622044647251e+00  -1.650925457917060e+00  -2.234409483635962e-01
2017-01-01T09:46:10.000  -2.271751976483677e+04  -3.588355515740137e+04   1.987984535227445e+03   2.554801003566300e+00  -1.649064758129180e+00  -2.235441391092691e-01
2017-01-01T09:46:20.000  -2.269196586605684e+04  -3.590003649770358e+04   1.985748578411964e+03   2.555978623939869e+00  -1.647203224456905e+00  -2.236472127473252e-01
2017-01-01T09:46:30.000  -2.266640019779352e+04  -3.591649921848696e+04   1.983511591448058e+03   2.557154905212605e+00  -1.645340857845778e+00  -2.237501692291479e-01
